H1 CPF 01  gfz 2022 07 23 00  7041 terrasarx 
H2 0702601  6201 31698    2022 07 23 00 59 42 2022 07 28 00 00 42   120 1 1  0 0 0
H9
10 0 59787  55422.000000  0   -5094080.711  -4425791.964   1379714.797
10 0 59787  55542.000000  0   -5304148.617  -4369232.938    483619.583
10 0 59787  55662.000000  0   -5419826.530  -4233455.318   -420990.697
10 0 59787  55782.000000  0   -5437788.017  -4022549.619  -1318195.390
10 0 59787  55902.000000  0   -5356516.725  -3741971.710  -2192224.314
10 0 59787  56022.000000  0   -5176349.377  -3398408.574  -3027742.580
10 0 59787  56142.000000  0   -4899481.556  -2999621.937  -3810123.723
10 0 59787  56262.000000  0   -4529937.191  -2554273.340  -4525706.491
10 0 59787  56382.000000  0   -4073502.263  -2071735.255  -5162030.861
10 0 59787  56502.000000  0   -3537625.142  -1561893.113  -5708048.746
10 0 59787  56622.000000  0   -2931286.817  -1034942.404  -6154306.666
10 0 59787  56742.000000  0   -2264844.198   -501185.666  -6493098.435
10 0 59787  56862.000000  0   -1549849.018     29166.369  -6718586.696
10 0 59787  56982.000000  0    -798847.232    546185.549  -6826891.667
10 0 59787  57102.000000  0     -25162.932   1040406.983  -6816150.560
10 0 59787  57222.000000  0     757332.049   1502997.683  -6686545.714
10 0 59787  57342.000000  0    1534460.270   1925910.112  -6440304.273
10 0 59787  57462.000000  0    2291990.709   2302020.609  -6081664.262
10 0 59787  57582.000000  0    3015895.207   2625248.769  -5616809.302
10 0 59787  57702.000000  0    3692604.951   2890656.111  -5053771.304
10 0 59787  57822.000000  0    4309265.036   3094523.698  -4402304.338
10 0 59787  57942.000000  0    4853982.988   3234406.705  -3673726.337
10 0 59787  58062.000000  0    5316064.137   3309163.401  -2880730.447
10 0 59787  58182.000000  0    5686228.821   3318959.272  -2037170.318
10 0 59787  58302.000000  0    5956807.933   3265244.819  -1157819.795
10 0 59787  58422.000000  0    6121908.994   3150705.814   -258112.171
10 0 59787  58542.000000  0    6177549.527   2979188.073    646135.687
10 0 59787  58662.000000  0    6121753.238   2755596.920   1539008.737
10 0 59787  58782.000000  0    5954605.803   2485776.672   2404781.987
10 0 59787  58902.000000  0    5678269.876   2176370.959   3228206.680
10 0 59787  59022.000000  0    5296956.715   1834667.017   3994786.852
10 0 59787  59142.000000  0    4816856.191   1468429.312   4691039.801
10 0 59787  59262.000000  0    4246028.273   1085726.343   5304733.613
10 0 59787  59382.000000  0    3594260.325    694755.062   5825102.296
10 0 59787  59502.000000  0    2872888.640    303666.594   6243031.249
10 0 59787  59622.000000  0    2094594.230    -79601.241   6551209.301
10 0 59787  59742.000000  0    1273176.419   -447482.746   6744251.031
10 0 59787  59862.000000  0     423305.159   -792932.516   6818786.825
10 0 59787  59982.000000  0    -439742.717  -1109559.419   6773517.109
10 0 59787  60102.000000  0   -1300357.607  -1391744.471   6609232.869
10 0 59787  60222.000000  0   -2142878.274  -1634740.629   6328801.456
10 0 59787  60342.000000  0   -2951874.525  -1834751.891   5937119.507
10 0 59787  60462.000000  0   -3712430.594  -1988992.863   5441035.738
10 0 59787  60582.000000  0   -4410425.497  -2095728.033   4849237.431
10 0 59787  60702.000000  0   -5032801.171  -2154288.442   4172103.032
10 0 59787  60822.000000  0   -5567813.881  -2165064.755   3421523.274
10 0 59787  60942.000000  0   -6005263.495  -2129477.240   2610694.736
10 0 59787  61062.000000  0   -6336697.136  -2049924.573   1753888.541
10 0 59787  61182.000000  0   -6555582.470  -1929711.675    866194.761
10 0 59787  61302.000000  0   -6657441.350  -1772956.959    -36751.085
10 0 59787  61422.000000  0   -6639943.739  -1584481.961   -939051.749
10 0 59787  61542.000000  0   -6502957.522  -1369686.382  -1824837.718
10 0 59787  61662.000000  0   -6248553.569  -1134412.245  -2678554.262
10 0 59787  61782.000000  0   -5880966.936   -884800.968  -3485240.273
10 0 59787  61902.000000  0   -5406515.709   -627146.030  -4230793.428
10 0 59787  62022.000000  0   -4833480.119   -367744.997  -4902215.971
10 0 59787  62142.000000  0   -4171945.401   -112755.324  -5487836.667
10 0 59787  62262.000000  0   -3433612.581    131942.772  -5977505.801
10 0 59787  62382.000000  0   -2631582.578    360873.932  -6362759.456
10 0 59787  62502.000000  0   -1780119.874    569082.649  -6636953.653
10 0 59787  62622.000000  0    -894398.141    752233.748  -6795368.408
10 0 59787  62742.000000  0       9766.925    906698.218  -6835279.301
10 0 59787  62862.000000  0     916192.604   1029621.793  -6755998.402
10 0 59787  62982.000000  0    1808611.424   1118975.710  -6558887.618
10 0 59787  63102.000000  0    2670957.689   1173590.153  -6247338.262
10 0 59787  63222.000000  0    3487652.029   1193168.758  -5826718.387
10 0 59787  63342.000000  0    4243879.241   1178283.821  -5304288.704
10 0 59787  63462.000000  0    4925857.548   1130352.680  -4689089.361
10 0 59787  63582.000000  0    5521095.087   1051595.758  -3991794.640
10 0 59787  63702.000000  0    6018626.564    944976.315  -3224537.180
10 0 59787  63822.000000  0    6409225.679    814122.857  -2400704.633
10 0 59787  63942.000000  0    6685589.280    663236.200  -1534710.341
10 0 59787  64062.000000  0    6842486.633    496982.345   -641740.233
10 0 59787  64182.000000  0    6876868.143    320373.851    262517.531
10 0 59787  64302.000000  0    6787932.239    138643.543   1162154.062
10 0 59787  64422.000000  0    6577148.154    -42888.166   2041328.008
10 0 59787  64542.000000  0    6248232.023   -218947.461   2884554.271
10 0 59787  64662.000000  0    5807076.757   -384440.132   3676985.052
10 0 59787  64782.000000  0    5261638.487   -534578.970   4404676.411
10 0 59787  64902.000000  0    4621785.224   -665002.921   5054837.167
10 0 59787  65022.000000  0    3899107.049   -771885.968   5616054.529
10 0 59787  65142.000000  0    3106695.927   -852030.989   6078490.724
10 0 59787  65262.000000  0    2258900.757   -902948.723   6434050.620
10 0 59787  65382.000000  0    1371062.469   -922919.746   6676517.739
10 0 59787  65502.000000  0     459232.201   -911038.562   6801658.133
10 0 59787  65622.000000  0    -460120.897   -867238.321   6807288.588
10 0 59787  65742.000000  0   -1370406.386   -792296.692   6693311.154
10 0 59787  65862.000000  0   -2255210.428   -687822.106   6461714.353
10 0 59787  65982.000000  0   -3098590.106   -556220.639   6116540.859
10 0 59787  66102.000000  0   -3885361.385   -400644.085   5663822.771
10 0 59787  66222.000000  0   -4601376.592   -224920.449   5111482.901
10 0 59787  66342.000000  0   -5233785.457    -33467.694   4469201.797
10 0 59787  66462.000000  0   -5771273.922    168807.434   3748252.420
10 0 59787  66582.000000  0   -6204275.430    376623.924   2961304.951
10 0 59787  66702.000000  0   -6525151.384    584451.951   2122205.298
10 0 59787  66822.000000  0   -6728335.607    786646.350   1245728.767
10 0 59787  66942.000000  0   -6810438.862    977584.207    347314.235
10 0 59787  67062.000000  0   -6770309.673   1151803.827   -557216.317
10 0 59787  67182.000000  0   -6609048.823   1304141.123  -1451945.884
10 0 59787  67302.000000  0   -6329978.565   1429859.373  -2321150.215
10 0 59787  67422.000000  0   -5938569.549   1524771.023  -3149581.279
10 0 59787  67542.000000  0   -5442323.023   1585346.522  -3922740.917
10 0 59787  67662.000000  0   -4850614.078   1608807.283  -4627135.002
10 0 59787  67782.000000  0   -4174502.032   1593202.079  -5250505.227
10 0 59787  67902.000000  0   -3426512.706   1537464.809  -5782034.610
10 0 59787  68022.000000  0   -2620399.059   1441452.841  -6212525.181
10 0 59787  68142.000000  0   -1770883.976   1305965.200  -6534546.567
10 0 59787  68262.000000  0    -893389.564   1132741.436  -6742552.325
10 0 59787  68382.000000  0      -3760.499    924440.135  -6832964.343
10 0 59787  68502.000000  0     882014.800    684599.027  -6804227.244
10 0 59787  68622.000000  0    1748084.512    417576.128  -6656834.784
10 0 59787  68742.000000  0    2579011.666    128472.343  -6393321.951
10 0 59787  68862.000000  0    3360043.869   -176962.355  -6018226.269
10 0 59787  68982.000000  0    4077372.452   -492438.933  -5538016.834
10 0 59787  69102.000000  0    4718375.629   -811253.318  -4960993.578
10 0 59787  69222.000000  0    5271845.689  -1126423.352  -4297156.292
10 0 59787  69342.000000  0    5728193.005  -1430835.759  -3558041.473
10 0 59787  69462.000000  0    6079622.514  -1717400.374  -2756530.244
10 0 59787  69582.000000  0    6320278.756  -1979208.677  -1906629.176
10 0 59787  69702.000000  0    6446355.060  -2209692.831  -1023226.925
10 0 59787  69822.000000  0    6456163.636  -2402780.714   -121831.544
10 0 59787  69942.000000  0    6350164.419  -2553043.758    781706.997
10 0 59787  70062.000000  0    6130950.911  -2655832.840   1671483.484
10 0 59787  70182.000000  0    5803192.258  -2707399.115   2531826.986
10 0 59787  70302.000000  0    5373533.255  -2704996.605   3347585.450
10 0 59787  70422.000000  0    4850454.367  -2646962.863   4104399.941
10 0 59787  70542.000000  0    4244097.486  -2532776.320   4788960.232
10 0 59787  70662.000000  0    3566062.798  -2363090.701   5389241.200
10 0 59787  70782.000000  0    2829177.271  -2139744.208   5894713.562
10 0 59787  70902.000000  0    2047244.549  -1865743.013   6296523.747
10 0 59787  71022.000000  0    1234781.242  -1545221.256   6587643.339
10 0 59787  71142.000000  0     406743.881  -1183377.817   6762986.143
10 0 59787  71262.000000  0    -421747.935   -786390.643   6819491.227
10 0 59787  71382.000000  0   -1235686.901   -361310.582   6756172.077
10 0 59787  71502.000000  0   -2020448.477     84063.523   6574132.628
10 0 59787  71622.000000  0   -2762052.532    541327.389   6276549.463
10 0 59787  71742.000000  0   -3447412.639   1001628.847   5868620.467
10 0 59787  71862.000000  0   -4064569.583   1455837.888   5357480.215
99
